{"spkid": "50801968", "covariance": {"epoch": "2458556.5", "labels": ["e", "q", "tp", "node", "peri", "i"], "data": [["6.2026051627276E-13", "-5.020196216241787E-13", "-1.479575134706744E-10", "-3.072470381054892E-11", "-8.208644515699721E-11", "4.341318725566406E-12"], ["-5.020196216241787E-13", "4.063316598026527E-13", "1.194402941851428E-10", "2.483509907990852E-11", "6.623267932448579E-11", "-3.589833279278354E-12"], ["-1.479575134706744E-10", "1.194402941851428E-10", "4.357653418234749E-8", "8.175077244395374E-9", "2.505684249827442E-8", "9.183111823953723E-10"], ["-3.072470381054892E-11", "2.483509907990852E-11", "8.175077244395374E-9", "2.02241063725385E-9", "4.219092825537584E-9", "1.734881216362051E-10"], ["-8.208644515699721E-11", "6.623267932448579E-11", "2.505684249827442E-8", "4.219092825537584E-9", "1.488513033725074E-8", "5.333856301758466E-10"], ["4.341318725566406E-12", "-3.589833279278354E-12", "9.183111823953723E-10", "1.734881216362051E-10", "5.333856301758466E-10", "6.53708194320571E-10"]], "elements": [{"units": null, "title": "eccentricity", "value": ".3255177536467182", "sigma": 7.87566198025766e-07, "name": "e", "label": "e"}, {"title": "perihelion distance", "value": ".5372274777892543", "units": "au", "name": "q", "sigma": 6.37441495199875e-07, "label": "q"}, {"sigma": 0.000208749932173276, "name": "tp", "units": "TDB", "value": "2458579.700099492244", "title": "time of perihelion passage", "label": "tp"}, {"label": "node", "name": "om", "sigma": 4.49712200996799e-05, "title": "longitude of the ascending node", "value": "171.8876243962593", "units": "deg"}, {"name": "w", "sigma": 0.000122004632441767, "units": "deg", "title": "argument of perihelion", "value": "179.2226993904032", "label": "peri"}, {"name": "i", "sigma": 2.55677178160385e-05, "title": "inclination", "value": "5.442755953814874", "units": "deg", "label": "i"}]}, "elements": [{"title": "eccentricity", "value": ".3259592618976153", "units": null, "name": "e", "sigma": "7.8381E-7", "label": "e"}, {"name": "a", "sigma": "2.9443E-8", "units": "au", "title": "semi-major axis", "value": ".7963220550542537", "label": "a"}, {"label": "q", "name": "q", "sigma": "6.4392E-7", "title": "perihelion distance", "value": ".536753505755977", "units": "au"}, {"label": "i", "name": "i", "sigma": "2.5803E-5", "units": "deg", "value": "5.414398701494907", "title": "inclination; angle with respect to x-y ecliptic plane"}, {"label": "node", "sigma": "4.6471E-5", "name": "om", "value": "171.535840607453", "title": "longitude of the ascending node", "units": "deg"}, {"units": "deg", "value": "179.5354602623471", "title": "argument of perihelion", "sigma": ".00012116", "name": "w", "label": "peri"}, {"units": "deg", "value": "34.46155955881365", "title": "mean anomaly", "sigma": ".00039214", "name": "ma", "label": "M"}, {"label": "tp", "value": "2461175.653571547581", "title": "time of perihelion passage", "units": "TDB", "sigma": ".00028141", "name": "tp"}, {"title": "sidereal orbital period", "value": "259.5562811835416", "units": "d", "sigma": "1.4395E-5", "name": "per", "label": "period"}, {"label": "n", "name": "n", "sigma": "7.6922E-8", "title": "mean motion", "value": "1.386982423844449", "units": "deg/d"}, {"units": "au", "value": "1.05589060435253", "title": "aphelion distance", "sigma": "3.904E-8", "name": "ad", "label": "Q"}], "epoch": "2461200.5"}